stk.v.4.3 

BEGIN Ephemeris 
 
NumberOfEphemerisPoints		146 
ScenarioEpoch	    2 Jan 2020 10:24: 6.632654965 
InterpolationMethod		Lagrange 
InterpolationOrder		5 
CentralBody				Earth 
CoordinateSystem			TEME 
CoordinateSystemEpoch	  2 Jan 2020 10:24: 6.632654965 
DistanceUnit			Kilometers 
 
EphemerisTimePosVel 
 
       0.00000000   -1358.68650583   -6902.46393136       0.04118591  0.438260850 -0.076091091  7.515950714
 END Ephemeris 
